STARLINK-31181          
1 58746U 24005U   26068.37309309 -.00000998  00000+0 -26716-4 0  9990
2 58746  43.0097  69.3095 0002025 287.6500  72.4130 15.27582211122235
HAWK-11A                
1 62382U 24247F   26068.51231358  .00009457  00000+0  34106-3 0  9991
2 62382  44.9941 114.3328 0005466 327.3713  32.6832 15.28849427 67741
